[{"OBJECT_NAME":"DRUMS","OBJECT_ID":"2021-102G","EPOCH":"2026-03-09T16:02:04.019712","MEAN_MOTION":15.19452308,"ECCENTRICITY":0.00145193,"INCLINATION":97.3433,"RA_OF_ASC_NODE":108.4998,"ARG_OF_PERICENTER":215.993,"MEAN_ANOMALY":144.0328,"EPHEMERIS_TYPE":0,"CLASSIFICATION_TYPE":"U","NORAD_CAT_ID":49401,"ELEMENT_SET_NO":999,"REV_AT_EPOCH":23846,"BSTAR":0.00031687422,"MEAN_MOTION_DOT":6.67e-5,"MEAN_MOTION_DDOT":0},{"OBJECT_NAME":"TITAN 3C TRANSTAGE DEB","OBJECT_ID":"1965-082EY","EPOCH":"2026-03-09T01:33:52.493760","MEAN_MOTION":15.22433287,"ECCENTRICITY":0.00129834,"INCLINATION":32.0932,"RA_OF_ASC_NODE":327.1819,"ARG_OF_PERICENTER":169.7698,"MEAN_ANOMALY":190.323,"EPHEMERIS_TYPE":0,"CLASSIFICATION_TYPE":"U","NORAD_CAT_ID":1883,"ELEMENT_SET_NO":999,"REV_AT_EPOCH":25002,"BSTAR":0.00039349355,"MEAN_MOTION_DOT":9.436e-5,"MEAN_MOTION_DDOT":0}]
